{"fetched_at":"2026-07-13T18:16:58.106Z","source":"https://celestrak.org/NORAD/elements/gp.php?NAME=HULIANWANG&FORMAT=JSON","constellation":"guowang","records":[{"OBJECT_NAME":"HULIANWANG DIGUI-44","OBJECT_ID":"2025-162E","EPOCH":"2026-07-13T07:04:50.167776","CLASSIFICATION_TYPE":"U","MEAN_MOTION":13.2931857,"ECCENTRICITY":0.00014332,"INCLINATION":49.9997,"RA_OF_ASC_NODE":172.054,"ARG_OF_PERICENTER":322.7718,"MEAN_ANOMALY":37.3055,"EPHEMERIS_TYPE":0,"NORAD_CAT_ID":65047,"ELEMENT_SET_NO":999,"REV_AT_EPOCH":4684,"BSTAR":0.000056943842,"MEAN_MOTION_DOT":-9.8e-7,"MEAN_MOTION_DDOT":0},{"OBJECT_NAME":"HULIANWANG DIGUI-45","OBJECT_ID":"2025-162F","EPOCH":"2026-07-13T06:53:00.511872","CLASSIFICATION_TYPE":"U","MEAN_MOTION":13.29327174,"ECCENTRICITY":0.00002701,"INCLINATION":50.0027,"RA_OF_ASC_NODE":172.0943,"ARG_OF_PERICENTER":306.231,"MEAN_ANOMALY":53.8537,"EPHEMERIS_TYPE":0,"NORAD_CAT_ID":65048,"ELEMENT_SET_NO":999,"REV_AT_EPOCH":4683,"BSTAR":0.000061583018,"MEAN_MOTION_DOT":-9.5e-7,"MEAN_MOTION_DDOT":0},{"OBJECT_NAME":"HULIANWANG DIGUI-46","OBJECT_ID":"2025-162G","EPOCH":"2026-07-13T06:41:00.704832","CLASSIFICATION_TYPE":"U","MEAN_MOTION":13.29326983,"ECCENTRICITY":0.00002503,"INCLINATION":50.0045,"RA_OF_ASC_NODE":172.1009,"ARG_OF_PERICENTER":301.7568,"MEAN_ANOMALY":58.328,"EPHEMERIS_TYPE":0,"NORAD_CAT_ID":65049,"ELEMENT_SET_NO":999,"REV_AT_EPOCH":4683,"BSTAR":0.000050294781,"MEAN_MOTION_DOT":-0.00000101,"MEAN_MOTION_DDOT":0},{"OBJECT_NAME":"HULIANWANG DIGUI-47","OBJECT_ID":"2025-162H","EPOCH":"2026-07-13T06:28:59.087712","CLASSIFICATION_TYPE":"U","MEAN_MOTION":13.29326587,"ECCENTRICITY":0.00002826,"INCLINATION":50.0009,"RA_OF_ASC_NODE":171.9607,"ARG_OF_PERICENTER":291.6911,"MEAN_ANOMALY":68.3931,"EPHEMERIS_TYPE":0,"NORAD_CAT_ID":65050,"ELEMENT_SET_NO":999,"REV_AT_EPOCH":4683,"BSTAR":0.000032661865,"MEAN_MOTION_DOT":-0.00000109,"MEAN_MOTION_DDOT":0},{"OBJECT_NAME":"HULIANWANG DIGUI-48","OBJECT_ID":"2025-162J","EPOCH":"2026-07-13T06:16:57.029952","CLASSIFICATION_TYPE":"U","MEAN_MOTION":13.29327323,"ECCENTRICITY":0.00002831,"INCLINATION":50.002,"RA_OF_ASC_NODE":171.9442,"ARG_OF_PERICENTER":301.6312,"MEAN_ANOMALY":58.4532,"EPHEMERIS_TYPE":0,"NORAD_CAT_ID":65051,"ELEMENT_SET_NO":999,"REV_AT_EPOCH":4683,"BSTAR":0.000031947095,"MEAN_MOTION_DOT":-0.00000109,"MEAN_MOTION_DDOT":0},{"OBJECT_NAME":"HULIANWANG DIGUI-49","OBJECT_ID":"2025-168A","EPOCH":"2026-07-13T05:58:14.315520","CLASSIFICATION_TYPE":"U","MEAN_MOTION":13.29321813,"ECCENTRICITY":0.00083402,"INCLINATION":50.0012,"RA_OF_ASC_NODE":232.4954,"ARG_OF_PERICENTER":185.2972,"MEAN_ANOMALY":174.7813,"EPHEMERIS_TYPE":0,"NORAD_CAT_ID":65106,"ELEMENT_SET_NO":999,"REV_AT_EPOCH":4615,"BSTAR":0.000083871309,"MEAN_MOTION_DOT":-8.5e-7,"MEAN_MOTION_DDOT":0},{"OBJECT_NAME":"HULIANWANG DIGUI-50","OBJECT_ID":"2025-168B","EPOCH":"2026-07-13T07:34:23.706624","CLASSIFICATION_TYPE":"U","MEAN_MOTION":13.29321592,"ECCENTRICITY":0.00089406,"INCLINATION":49.9983,"RA_OF_ASC_NODE":232.0962,"ARG_OF_PERICENTER":171.4168,"MEAN_ANOMALY":188.6858,"EPHEMERIS_TYPE":0,"NORAD_CAT_ID":65107,"ELEMENT_SET_NO":999,"REV_AT_EPOCH":4616,"BSTAR":0.00012441019,"MEAN_MOTION_DOT":-6.6e-7,"MEAN_MOTION_DDOT":0},{"OBJECT_NAME":"HULIANWANG DIGUI-51","OBJECT_ID":"2025-168C","EPOCH":"2026-07-13T07:21:52.062912","CLASSIFICATION_TYPE":"U","MEAN_MOTION":13.29324759,"ECCENTRICITY":0.00102493,"INCLINATION":50.0019,"RA_OF_ASC_NODE":232.156,"ARG_OF_PERICENTER":170.4856,"MEAN_ANOMALY":189.6212,"EPHEMERIS_TYPE":0,"NORAD_CAT_ID":65108,"ELEMENT_SET_NO":999,"REV_AT_EPOCH":4616,"BSTAR":0.00012342685,"MEAN_MOTION_DOT":-6.7e-7,"MEAN_MOTION_DDOT":0},{"OBJECT_NAME":"HULIANWANG DIGUI-52","OBJECT_ID":"2025-168D","EPOCH":"2026-07-13T07:10:12.063072","CLASSIFICATION_TYPE":"U","MEAN_MOTION":13.29322646,"ECCENTRICITY":0.00104823,"INCLINATION":50.0013,"RA_OF_ASC_NODE":232.0902,"ARG_OF_PERICENTER":182.999,"MEAN_ANOMALY":177.0821,"EPHEMERIS_TYPE":0,"NORAD_CAT_ID":65109,"ELEMENT_SET_NO":999,"REV_AT_EPOCH":4616,"BSTAR":0.00010463302,"MEAN_MOTION_DOT":-7.5e-7,"MEAN_MOTION_DDOT":0},{"OBJECT_NAME":"HULIANWANG DIGUI-53","OBJECT_ID":"2025-168E","EPOCH":"2026-07-13T06:57:55.563552","CLASSIFICATION_TYPE":"U","MEAN_MOTION":13.29326151,"ECCENTRICITY":0.00089787,"INCLINATION":50.0021,"RA_OF_ASC_NODE":232.0753,"ARG_OF_PERICENTER":174.0549,"MEAN_ANOMALY":186.0431,"EPHEMERIS_TYPE":0,"NORAD_CAT_ID":65110,"ELEMENT_SET_NO":999,"REV_AT_EPOCH":4616,"BSTAR":0.00011997367,"MEAN_MOTION_DOT":-6.8e-7,"MEAN_MOTION_DDOT":0},{"OBJECT_NAME":"HULIANWANG DIGUI-54","OBJECT_ID":"2025-168F","EPOCH":"2026-07-13T06:22:07.467744","CLASSIFICATION_TYPE":"U","MEAN_MOTION":13.29326265,"ECCENTRICITY":0.00108001,"INCLINATION":49.9971,"RA_OF_ASC_NODE":231.8072,"ARG_OF_PERICENTER":178.2453,"MEAN_ANOMALY":181.8458,"EPHEMERIS_TYPE":0,"NORAD_CAT_ID":65111,"ELEMENT_SET_NO":999,"REV_AT_EPOCH":4616,"BSTAR":0.00011483081,"MEAN_MOTION_DOT":-7.1e-7,"MEAN_MOTION_DDOT":0},{"OBJECT_NAME":"HULIANWANG DIGUI-55","OBJECT_ID":"2025-168G","EPOCH":"2026-07-13T06:46:01.798464","CLASSIFICATION_TYPE":"U","MEAN_MOTION":13.29322526,"ECCENTRICITY":0.00118639,"INCLINATION":49.9977,"RA_OF_ASC_NODE":231.9068,"ARG_OF_PERICENTER":174.323,"MEAN_ANOMALY":185.7778,"EPHEMERIS_TYPE":0,"NORAD_CAT_ID":65112,"ELEMENT_SET_NO":999,"REV_AT_EPOCH":4616,"BSTAR":0.00010942223,"MEAN_MOTION_DOT":-7.3e-7,"MEAN_MOTION_DDOT":0},{"OBJECT_NAME":"HULIANWANG DIGUI-56","OBJECT_ID":"2025-168H","EPOCH":"2026-07-13T06:34:05.874240","CLASSIFICATION_TYPE":"U","MEAN_MOTION":13.29322011,"ECCENTRICITY":0.00120162,"INCLINATION":49.9969,"RA_OF_ASC_NODE":231.8401,"ARG_OF_PERICENTER":194.0635,"MEAN_ANOMALY":165.9904,"EPHEMERIS_TYPE":0,"NORAD_CAT_ID":65113,"ELEMENT_SET_NO":999,"REV_AT_EPOCH":4616,"BSTAR":0.00010148064,"MEAN_MOTION_DOT":-7.7e-7,"MEAN_MOTION_DDOT":0},{"OBJECT_NAME":"HULIANWANG DIGUI-57","OBJECT_ID":"2025-168J","EPOCH":"2026-07-13T06:10:08.140224","CLASSIFICATION_TYPE":"U","MEAN_MOTION":13.29326195,"ECCENTRICITY":0.00096488,"INCLINATION":49.9997,"RA_OF_ASC_NODE":231.8364,"ARG_OF_PERICENTER":186.2386,"MEAN_ANOMALY":173.8368,"EPHEMERIS_TYPE":0,"NORAD_CAT_ID":65114,"ELEMENT_SET_NO":999,"REV_AT_EPOCH":4617,"BSTAR":0.00011283135,"MEAN_MOTION_DOT":-7.2e-7,"MEAN_MOTION_DDOT":0},{"OBJECT_NAME":"HULIANWANG DIGUI-58","OBJECT_ID":"2025-174A","EPOCH":"2026-07-13T06:07:21.516096","CLASSIFICATION_TYPE":"U","MEAN_MOTION":13.24407285,"ECCENTRICITY":0.00017979,"INCLINATION":86.4948,"RA_OF_ASC_NODE":243.2088,"ARG_OF_PERICENTER":100.1528,"MEAN_ANOMALY":259.9809,"EPHEMERIS_TYPE":0,"NORAD_CAT_ID":65164,"ELEMENT_SET_NO":999,"REV_AT_EPOCH":4424,"BSTAR":0.000086276238,"MEAN_MOTION_DOT":5.2e-7,"MEAN_MOTION_DDOT":0},{"OBJECT_NAME":"HULIANWANG DIGUI-59","OBJECT_ID":"2025-174B","EPOCH":"2026-07-13T06:18:17.539200","CLASSIFICATION_TYPE":"U","MEAN_MOTION":13.2440734,"ECCENTRICITY":0.0001895,"INCLINATION":86.4909,"RA_OF_ASC_NODE":243.0869,"ARG_OF_PERICENTER":99.8317,"MEAN_ANOMALY":260.3031,"EPHEMERIS_TYPE":0,"NORAD_CAT_ID":65165,"ELEMENT_SET_NO":999,"REV_AT_EPOCH":4424,"BSTAR":0.000048681381,"MEAN_MOTION_DOT":3.6e-7,"MEAN_MOTION_DDOT":0}]}
