HULIANWANG DIGUI-44     
1 65047U 25162E   26194.29502509 -.00000098  00000+0  56944-4 0  9991
2 65047  49.9997 172.0540 0001433 322.7718  37.3055 13.29318570 46845
HULIANWANG DIGUI-45     
1 65048U 25162F   26194.28681148 -.00000095  00000+0  61583-4 0  9990
2 65048  50.0027 172.0943 0000270 306.2310  53.8537 13.29327174 46830
HULIANWANG DIGUI-46     
1 65049U 25162G   26194.27848038 -.00000101  00000+0  50295-4 0  9999
2 65049  50.0045 172.1009 0000250 301.7568  58.3280 13.29326983 46830
HULIANWANG DIGUI-47     
1 65050U 25162H   26194.27012833 -.00000109  00000+0  32662-4 0  9993
2 65050  50.0009 171.9607 0000282 291.6911  68.3931 13.29326587 46831
HULIANWANG DIGUI-48     
1 65051U 25162J   26194.26177118 -.00000109  00000+0  31947-4 0  9996
2 65051  50.0020 171.9442 0000283 301.6312  58.4532 13.29327323 46836
HULIANWANG DIGUI-49     
1 65106U 25168A   26194.24877680 -.00000085  00000+0  83871-4 0  9998
2 65106  50.0012 232.4954 0008340 185.2972 174.7813 13.29321813 46156
HULIANWANG DIGUI-50     
1 65107U 25168B   26194.31555216 -.00000066  00000+0  12441-3 0  9998
2 65107  49.9983 232.0962 0008940 171.4168 188.6858 13.29321592 46164
HULIANWANG DIGUI-51     
1 65108U 25168C   26194.30685258 -.00000067  00000+0  12343-3 0  9990
2 65108  50.0019 232.1560 0010249 170.4856 189.6212 13.29324759 46164
HULIANWANG DIGUI-52     
1 65109U 25168D   26194.29875073 -.00000075  00000+0  10463-3 0  9995
2 65109  50.0013 232.0902 0010482 182.9990 177.0821 13.29322646 46164
HULIANWANG DIGUI-53     
1 65110U 25168E   26194.29022643 -.00000068  00000+0  11997-3 0  9999
2 65110  50.0021 232.0753 0008978 174.0549 186.0431 13.29326151 46160
HULIANWANG DIGUI-54     
1 65111U 25168F   26194.26536421 -.00000071  00000+0  11483-3 0  9995
2 65111  49.9971 231.8072 0010800 178.2453 181.8458 13.29326265 46168
HULIANWANG DIGUI-55     
1 65112U 25168G   26194.28196526 -.00000073  00000+0  10942-3 0  9997
2 65112  49.9977 231.9068 0011863 174.3230 185.7778 13.29322526 46165
HULIANWANG DIGUI-56     
1 65113U 25168H   26194.27367910 -.00000077  00000+0  10148-3 0  9996
2 65113  49.9969 231.8401 0012016 194.0635 165.9904 13.29322011 46166
HULIANWANG DIGUI-57     
1 65114U 25168J   26194.25703866 -.00000072  00000+0  11283-3 0  9995
2 65114  49.9997 231.8364 0009648 186.2386 173.8368 13.29326195 46179
HULIANWANG DIGUI-58     
1 65164U 25174A   26194.25511014  .00000052  00000+0  86276-4 0  9991
2 65164  86.4948 243.2088 0001797 100.1528 259.9809 13.24407285 44243
HULIANWANG DIGUI-59     
1 65165U 25174B   26194.26270300  .00000036  00000+0  48681-4 0  9993
2 65165  86.4909 243.0869 0001895  99.8317 260.3031 13.24407340 44240
